UNKNOWN                 
1 82112U          22001.21813246  .00002142  00000+0  59519-3 0  9996
2 82112  98.6492 102.9007 0098852   4.2665 355.9345 14.44711008372914
UNKNOWN                 
1 82139U          21365.55458474  .00000757  00000+0  46779-3 0  9996
2 82139  99.1332  39.3994 0093881 126.6624 234.3219 14.06282245276873
UNKNOWN                 
1 82162U          22003.86394801  .00001372  00000+0  24855-2 0  9993
2 82162 100.3913 213.5836 0046562  88.3822 272.2638 13.42681265310574
UNKNOWN                 
1 82168U          21363.65175916  .00012972  00000+0  19072-2 0  9991
2 82168  74.0102 111.3578 0005086 185.4644 174.6476 14.75483989276051
UNKNOWN                 
1 82180U          22004.00078689  .00001549  00000+0  34958-3 0  9995
2 82180  65.6602 223.1824 0482928 213.8137 143.1270 14.05898913396943
UNKNOWN                 
1 82187U          22003.12615594  .00007298  00000+0  13390-2 0  9999
2 82187  70.9430 172.4842 0067047 233.3398 126.1576 14.64591404431828
UNKNOWN                 
1 82189U          22002.78161125  .00000089  00000+0  41643-4 0  9993
2 82189  74.0337 164.7223 0017127 342.1112  17.9435 14.33680822425963
UNKNOWN                 
1 82199U          21365.10949189  .00000255  00000+0  21536-3 0  9998
2 82199  82.9673 236.1822 0036679 167.6626 345.0220 13.83614852410063
UNKNOWN                 
1 82205U          22004.32314585  .00000502  00000+0  12971-3 0  9995
2 82205  62.9973 327.0957 0636372 153.2402 210.3026 13.80011851408578
UNKNOWN                 
1 82223U          22003.72685022  .00000627  00000+0  42278-3 0  9996
2 82223  99.3898 182.4871 0075118 359.8484   0.2646 14.03170805246457
UNKNOWN                 
1 82227U          21364.41749278  .00000036  00000+0  58169-3 0  9999
2 82227 101.8552 334.6851 0002655 294.1736 220.9612 12.41991604461971
UNKNOWN                 
1 82250U          22003.57795522  .00000860  00000+0  58619-3 0  9991
2 82250  98.9553 272.7219 0085063 259.1880 221.5400 14.00920600414378
UNKNOWN                 
1 82268U          22002.10805619  .00001683  00000+0  88817-3 0  9994
2 82268  99.1346 102.1260 0057047  88.8728  32.7242 14.14464043531512
UNKNOWN                 
1 82272U          21363.80930104 -.00000023  00000+0  77629-4 0  9991
2 82272  67.5268 292.2419 0760725 309.2299  44.3501 12.32062924 93962
UNKNOWN                 
1 82284U          22004.22371679  .00002650  00000+0  10384-2 0  9999
2 82284  99.5572 160.9826 0107118 253.2267 105.7136 14.27314627465500
UNKNOWN                 
1 82285U          22004.03771553  .00002246  00000+0  22508-2 0  9996
2 82285 101.9983 123.3425 0356390 243.0943 113.3353 13.54543861399942
UNKNOWN                 
1 82295U          21360.31377155  .00000359  00000+0  17112-3 0  9991
2 82295  66.6234 335.6183 0129978 165.0154 195.4851 14.25817890373047
UNKNOWN                 
1 82298U          22002.47288985  .00001894  00000+0  99522-3 0  9997
2 82298  99.0594  93.4126 0063799 100.4582 260.3788 14.14305321361420
UNKNOWN                 
1 82303U          22003.95018581  .00006295  00000+0  13920-1 0  9997
2 82303  81.9514  86.0058 0059017 190.6754 295.0717 13.27105857320439
UNKNOWN                 
1 82311U          22004.48459057  .00000435  00000+0  70129-3 0  9998
2 82311  99.5110 103.8760 0110284 322.5935  36.7561 13.52004462355808
UNKNOWN                 
1 82314U          22003.51656608  .00013099  00000+0  55772-3 0  9992
2 82314  99.2115 116.4203 0194676 245.8916 112.1837 15.07612371324760
UNKNOWN                 
1 82320U          22004.32325301  .00000842  00000+0  31633-3 0  9994
2 82320  99.8471  39.8952 0160277  25.6517 335.2502 14.27962467422545
UNKNOWN                 
1 82322U          21362.63420820  .00004335  00000+0  10455-2 0  9997
2 82322  98.5774  69.8103 0078617 188.9340 171.0460 14.51855766354502
UNKNOWN                 
1 82363U          22003.43082468  .00000337  00000+0  63209-3 0  9999
2 82363  66.9394  30.8280 0462456   2.3648 357.9429 13.13833613101072
UNKNOWN                 
1 82369U 99025    21364.04883811 -.00000057  00000+0 -89060-5 0  9993
2 82369  99.0301  33.8825 0084152 357.3412   2.7292 13.97045212355522
UNKNOWN                 
1 82381U          22004.31382970  .00001636  00000+0  54030-3 0  9993
2 82381  98.4849 202.1609 0017448 228.2946 131.6750 14.39260342301914
UNKNOWN                 
1 82383U          22001.07859368  .00005687  00000+0  78820-3 0  9998
2 82383  98.2854  54.1138 0006497 220.7209 139.3516 14.78370753333240
UNKNOWN                 
1 82402U          22004.56966261  .00000659  00000+0  73028-4 0  9998
2 82402  86.6679  45.5584 0008651 289.8967  70.1325 14.85557214239992
UNKNOWN                 
1 82410U          22002.90354835  .00000034  00000+0  11064-3 0  9999
2 82410  66.6557 191.1734 0068673 263.6361  95.6885 13.76097330388554
UNKNOWN                 
1 82428U          22004.65493866  .00010670  00000+0  93843-2 0  9991
2 82428  63.1826 203.2982 0130730  45.3577 315.8036 13.81884004220729
UNKNOWN                 
1 82432U 93036    21364.51802080  .00000543  00000+0  14223-3 0  9996
2 82432  74.0078 192.1101 0063879 346.4056  13.5380 14.50594812273172
UNKNOWN                 
1 82448U          22003.87857845  .00000703  00000+0  78147-4 0  9995
2 82448  85.8790 234.2109 0010592 353.4406   6.6677 14.85509639222455
UNKNOWN                 
1 82451U          22004.59742388  .00006035  00000+0  66869-3 0  9995
2 82451  66.5366  84.1394 0273361 110.4379 252.6315 14.64509223921091
UNKNOWN                 
1 82453U          22003.56194742 -.00000021  00000+0  17325-3 0  9991
2 82453 101.9738 317.2186 0094656 352.8654   7.1058 12.39531048367737
UNKNOWN                 
1 82458U          21365.40900123  .00001520  00000+0  89263-3 0  9991
2 82458  66.5119 292.1155 0070915 258.0182 101.2949 14.09624830405989
UNKNOWN                 
1 82464U          22003.78125287  .00002309  00000+0  67889-3 0  9995
2 82464  71.0008  14.1548 0087067 207.8320 327.5843 14.42618040425828
UNKNOWN                 
1 82475U          21351.31669997  .00001011  00000+0  62332-3 0  9999
2 82475  99.1359  27.0307 0107985 197.8993 161.8358 14.04942983341238
UNKNOWN                 
1 82481U          22001.04387499  .00064223  00000+0  28647-2 0  9997
2 82481  99.0140 297.9370 0025904 347.2832  12.7742 15.20841640240442
UNKNOWN                 
1 82484U          21365.13311381  .00000062  00000+0  15071-3 0  9998
2 82484  99.5334  68.3657 0044401 238.1896 121.4914 13.55113628395202
UNKNOWN                 
1 82494U 93036    22003.97057606  .00000923  00000+0  24662-3 0  9991
2 82494  74.0210 258.8341 0010376  18.0265 342.1260 14.49762296273429
UNKNOWN                 
1 82500U          21365.02816202  .00001396  00000+0  82998-3 0  9990
2 82500  70.9723 134.5173 0139747 123.7464 237.7060 14.04378320415587
UNKNOWN                 
1 82517U          22004.36853873  .00003177  00000+0  93322-3 0  9993
2 82517  86.3910 336.2635 0024165 318.1051  41.8300 14.43371637215358
UNKNOWN                 
1 82524U          22003.76060374  .00000219  00000+0  11076-3 0  9990
2 82524  73.2921   5.8899 0177416 193.8275 341.4955 14.15048013372399
UNKNOWN                 
1 82526U          21357.35692412  .00001274  00000+0  83782-3 0  9997
2 82526  99.2360  37.7135 0103843  10.8085 349.5278 14.01186731318205
UNKNOWN                 
1 82529U          21365.27742396 -.00000254  00000+0 -33590-3 0  9998
2 82529  99.7826 115.6331 0245347 149.3407 241.5238 13.38527625396591
UNKNOWN                 
1 82545U          22003.66923343 -.00000066  00000+0 -62442-3 0  9991
2 82545  64.8865 345.4349 0180933 210.9116 148.1057 11.30780050276195
UNKNOWN                 
1 82560U          22002.35042889  .00000501  00000+0  48232-3 0  9993
2 82560 100.0399 187.9136 0009742 128.9080 351.8889 13.85559535412097
UNKNOWN                 
1 82561U          22002.62132125  .00002568  00000+0  83586-3 0  9993
2 82561  63.1189   6.3087 0491946 354.5408 107.6258 13.88793187410849
UNKNOWN                 
1 82576U          21360.85854192  .00001512  00000+0  10068-2 0  9997
2 82576  99.2587  28.8908 0114067  31.3644 329.4257 13.99672940 31258
UNKNOWN                 
1 82597U          22004.27766035  .00000417  00000+0  18769-3 0  9990
2 82597  66.7740 308.7473 0109804 293.9620  65.0010 14.28470193423109
UNKNOWN                 
1 82616U          22001.17846543  .00006675  00000+0  82596-3 0  9992
2 82616  97.3038  87.5478 0093645  24.0878 336.4673 14.79927558352155
UNKNOWN                 
1 82617U          22001.82954785  .00000175  00000+0  56093-4 0  9996
2 82617  74.0291  60.3056 0041008 357.1246   2.9670 14.46322623428326
UNKNOWN                 
1 82627U          22001.00799334  .00000840  00000+0  22579-2 0  9993
2 82627  82.4772 194.1868 0005747  89.2052  66.9283 13.13766459389350
UNKNOWN                 
1 82637U          22003.43396620  .00004644  00000+0  12039-2 0  9990
2 82637  99.5250 227.3351 0030711 130.0337 230.3555 14.50069821295612
UNKNOWN                 
1 82642U          22004.00443180  .00000312  00000+0  22513-3 0  9991
2 82642  99.0022 276.5521 0141350 272.7734  85.7260 13.99415393414442
UNKNOWN                 
1 82683U 99057    22003.72908806  .00000342  00000+0  15900-3 0  9990
2 82683  98.1033 173.0420 0226881 264.6352  92.8903 14.13724019258553
UNKNOWN                 
1 82693U          22003.75965809  .00000952  00000+0  13276-2 0  9990
2 82693 100.5413 192.4992 0046068 330.6107  29.2441 13.60350176357553
UNKNOWN                 
1 82698U          22004.50160193  .00000022  00000+0  72424-4 0  9992
2 82698  61.6074  14.1901 0739414 127.1434 239.9475 13.21582749347819
UNKNOWN                 
1 82708U          21364.10964191  .00000340  00000+0  15474-2 0  9991
2 82708 102.1500  53.8448 0057843 311.5420  48.0717 12.87225293337563
UNKNOWN                 
1 82728U          21349.28871362  .00022466  00000+0  54539-2 0  9990
2 82728 100.1140 186.5333 0174857 302.6696  55.7726 14.43998334888182
